1 90000           19337.16666667  .00000051  00000-0  13526-3 0 00005
2 90000 087.7929 095.6452 0009836 271.3459 155.0337 13.15256257000013
1 90001           19337.16666667  .00000252  00000-0  67253-3 0 00005
2 90001 087.7929 095.6451 0009835 271.3324 164.0473 13.15256057000012
1 90002           19337.16666667  .00000418  00000-0  11158-2 0 00002
2 90002 087.7929 095.6451 0009834 271.3157 173.0642 13.15255903000013
1 90003           19337.16666667  .00000565  00000-0  15094-2 0 00009
2 90003 087.7929 095.6451 0009834 271.2935 182.0865 13.15255767000012
1 90004           19337.16666667  .00000685  00000-0  18293-2 0 00007
2 90004 087.7929 095.6451 0009834 271.2656 191.1144 13.15255658000013
1 90005           19337.16666667  .00000740  00000-0  19768-2 0 00008
2 90005 087.7929 095.6451 0009835 271.2338 200.1463 13.15255620000016
1 90006           19337.16666667  .00000745  00000-0  19894-2 0 00004
2 90006 087.7930 095.6451 0009837 271.2005 209.1796 13.15255630000011
1 90007           19337.16666667  .00000703  00000-0  18786-2 0 00008
2 90007 087.7930 095.6451 0009842 271.1695 218.2105 13.15255681000013
1 90008           19337.16666667  .00000624  00000-0  16672-2 0 00003
2 90008 087.7930 095.6451 0009848 271.1448 227.2351 13.15255766000013
1 90009           19337.16666667  .00000518  00000-0  13844-2 0 00004
2 90009 087.7930 095.6451 0009855 271.1296 236.2502 13.15255872000019
1 90010           19337.16666667  .00000398  00000-0  10621-2 0 00002
2 90010 087.7930 095.6452 0009862 271.1262 245.2535 13.15255987000016
1 90011           19337.16666667  .00000245  00000-0  65519-3 0 00001
2 90011 087.7930 095.6452 0009870 271.1353 254.2444 13.15256124000010
1 90012           19337.16666667  .00000114  00000-0  30330-3 0 00000
2 90012 087.7930 095.6452 0009877 271.1550 263.2246 13.15256236000011
1 90013           19337.16666667 -.00000001  00000-0 -23758-5 0 00006
2 90013 087.7930 095.6452 0009882 271.1828 272.1968 13.15256327000017
1 90014           19337.16666667 -.00000089  00000-0 -23754-3 0 00007
2 90014 087.7930 095.6452 0009885 271.2150 281.1646 13.15256389000011
1 90015           19337.16666667 -.00000127  00000-0 -34002-3 0 00009
2 90015 087.7929 095.6452 0009887 271.2476 290.1320 13.15256402000018
1 90016           19337.16666667 -.00000160  00000-0 -42610-3 0 00001
2 90016 087.7929 095.6452 0009888 271.2776 299.1020 13.15256408000015
1 90017           19337.16666667 -.00000154  00000-0 -41188-3 0 00004
2 90017 087.7929 095.6452 0009888 271.3029 308.0767 13.15256379000013
1 90018           19337.16666667 -.00000117  00000-0 -31169-3 0 00002
2 90018 087.7929 095.6452 0009887 271.3231 317.0566 13.15256325000016
1 90019           19337.16666667 -.00000057  00000-0 -15134-3 0 00000
2 90019 087.7929 095.6452 0009886 271.3390 326.0408 13.15256255000019
1 90020           19337.16666667  .00000013  00000-0  35798-4 0 00001
2 90020 087.7929 095.6452 0009886 271.3530 335.0268 13.15256182000010
1 90021           19337.16666667  .00000080  00000-0  21334-3 0 00006
2 90021 087.7929 095.6451 0009887 271.3678 344.0120 13.15256120000013
1 90022           19337.16666667  .00000114  00000-0  30528-3 0 00000
2 90022 087.7929 095.6451 0009887 271.3858 352.9940 13.15256101000011
1 90023           19337.16666667  .00000138  00000-0  36939-3 0 00009
2 90023 087.7929 095.6451 0009888 271.4088 001.9710 13.15256097000019
1 90024           19337.16666667  .00000146  00000-0  38960-3 0 00005
2 90024 087.7929 095.6451 0009888 271.4369 010.9428 13.15256111000015
1 90025           19337.16666667  .00000101  00000-0  26993-3 0 00000
2 90025 087.7929 095.6451 0009887 271.4688 019.9109 13.15256184000014
1 90026           19337.16666667  .00000022  00000-0  58018-4 0 00007
2 90026 087.7930 095.6451 0009884 271.5016 028.8780 13.15256292000014
1 90027           19337.16666667 -.00000086  00000-0 -22910-3 0 00001
2 90027 087.7930 095.6451 0009879 271.5318 037.8477 13.15256426000016
1 90028           19337.16666667 -.00000212  00000-0 -56486-3 0 00008
2 90028 087.7930 095.6451 0009873 271.5555 046.8239 13.15256574000014
1 90029           19337.16666667 -.00000343  00000-0 -91697-3 0 00007
2 90029 087.7930 095.6451 0009866 271.5695 055.8097 13.15256724000011
1 90030           19337.16666667 -.00000469  00000-0 -12514-2 0 00008
2 90030 087.7930 095.6452 0009858 271.5717 064.8074 13.15256861000017
1 90031           19337.16666667 -.00000605  00000-0 -16149-2 0 00009
2 90031 087.7930 095.6452 0009851 271.5615 073.8175 13.15256999000012
1 90032           19337.16666667 -.00000699  00000-0 -18667-2 0 00000
2 90032 087.7930 095.6452 0009844 271.5407 082.8382 13.15257091000018
1 90033           19337.16666667 -.00000756  00000-0 -20188-2 0 00006
2 90033 087.7930 095.6452 0009839 271.5121 091.8668 13.15257140000018
1 90034           19337.16666667 -.00000768  00000-0 -20508-2 0 00006
2 90034 087.7930 095.6452 0009836 271.4793 100.8996 13.15257140000015
1 90035           19337.16666667 -.00000714  00000-0 -19055-2 0 00003
2 90035 087.7929 095.6452 0009834 271.4465 109.9325 13.15257073000019
1 90036           19337.16666667 -.00000639  00000-0 -17051-2 0 00004
2 90036 087.7929 095.6452 0009834 271.4167 118.9624 13.15256982000019
1 90037           19337.16666667 -.00000514  00000-0 -13731-2 0 00008
2 90037 087.7929 095.6452 0009834 271.3921 127.9871 13.15256843000017
1 90038           19337.16666667 -.00000349  00000-0 -93139-3 0 00006
2 90038 087.7929 095.6452 0009835 271.3731 137.0063 13.15256666000016
1 90039           19337.16666667 -.00000155  00000-0 -41446-3 0 00006
2 90039 087.7929 095.6452 0009836 271.3584 146.0210 13.15256466000016
